<?xml version="1.0" encoding="UTF-8"?>
<kml xmlns="http://www.opengis.net/kml/2.2">
  <Document>
    <name>PUNTOS</name>
    <Style id="icon-1899-DB4436-labelson-nodesc">
      <IconStyle>
        <color>ff3644db</color>
        <scale>1</scale>
        <Icon>
          <href>https://www.gstatic.com/mapspro/images/stock/503-wht-blank_maps.png</href>
        </Icon>
        <hotSpot x="32" xunits="pixels" y="64" yunits="insetPixels"/>
      </IconStyle>
      <BalloonStyle>
        <text><![CDATA[<h3>$[name]</h3>]]></text>
      </BalloonStyle>
    </Style>
    <Placemark>
      <name>150132 - 01</name>
      <styleUrl>#icon-1899-DB4436-labelson-nodesc</styleUrl>
      <Point>
        <coordinates>
          -76.989416,-11.938523,0
        </coordinates>
      </Point>
    </Placemark>
    <Placemark>
      <name>150132 - 02</name>
      <styleUrl>#icon-1899-DB4436-labelson-nodesc</styleUrl>
      <Point>
        <coordinates>
          -77.005947,-11.967202,0
        </coordinates>
      </Point>
    </Placemark>
    <Placemark>
      <name>150132 - 06</name>
      <styleUrl>#icon-1899-DB4436-labelson-nodesc</styleUrl>
      <Point>
        <coordinates>
          -76.981322,-11.943904,0
        </coordinates>
      </Point>
    </Placemark>
    <Placemark>
      <name>150132 - 08</name>
      <styleUrl>#icon-1899-DB4436-labelson-nodesc</styleUrl>
      <Point>
        <coordinates>
          -77.012419,-11.980858,0
        </coordinates>
      </Point>
    </Placemark>
    <Placemark>
      <name>150132 - 09</name>
      <styleUrl>#icon-1899-DB4436-labelson-nodesc</styleUrl>
      <Point>
        <coordinates>
          -76.989557,-11.962962,0
        </coordinates>
      </Point>
    </Placemark>
    <Placemark>
      <name>150132 - 10</name>
      <styleUrl>#icon-1899-DB4436-labelson-nodesc</styleUrl>
      <Point>
        <coordinates>
          -76.971595,-11.936679,0
        </coordinates>
      </Point>
    </Placemark>
    <Placemark>
      <name>150132 - 11</name>
      <styleUrl>#icon-1899-DB4436-labelson-nodesc</styleUrl>
      <Point>
        <coordinates>
          -77.018905,-12.011035,0
        </coordinates>
      </Point>
    </Placemark>
    <Placemark>
      <name>150132 - 12</name>
      <styleUrl>#icon-1899-DB4436-labelson-nodesc</styleUrl>
      <Point>
        <coordinates>
          -76.99647,-12.026606,0
        </coordinates>
      </Point>
    </Placemark>
    <Placemark>
      <name>150132 - 13</name>
      <styleUrl>#icon-1899-DB4436-labelson-nodesc</styleUrl>
      <Point>
        <coordinates>
          -76.997405,-12.006526,0
        </coordinates>
      </Point>
    </Placemark>
    <Placemark>
      <name>150132 - 15</name>
      <styleUrl>#icon-1899-DB4436-labelson-nodesc</styleUrl>
      <Point>
        <coordinates>
          -76.968164,-12.024448,0
        </coordinates>
      </Point>
    </Placemark>
    <Placemark>
      <name>150132 - 16</name>
      <styleUrl>#icon-1899-DB4436-labelson-nodesc</styleUrl>
      <Point>
        <coordinates>
          -76.991641,-11.955355,0
        </coordinates>
      </Point>
    </Placemark>
    <Placemark>
      <name>150132 - 17</name>
      <styleUrl>#icon-1899-DB4436-labelson-nodesc</styleUrl>
      <Point>
        <coordinates>
          -76.975768,-11.965319,0
        </coordinates>
      </Point>
    </Placemark>
    <Placemark>
      <name>150132 - 24</name>
      <styleUrl>#icon-1899-DB4436-labelson-nodesc</styleUrl>
      <Point>
        <coordinates>
          -76.989022,-11.944925,0
        </coordinates>
      </Point>
    </Placemark>
    <Placemark>
      <name>150132 - 25</name>
      <styleUrl>#icon-1899-DB4436-labelson-nodesc</styleUrl>
      <Point>
        <coordinates>
          -76.990081,-11.944222,0
        </coordinates>
      </Point>
    </Placemark>
    <Placemark>
      <name>150132 - 27</name>
      <styleUrl>#icon-1899-DB4436-labelson-nodesc</styleUrl>
      <Point>
        <coordinates>
          -77.008936,-11.975369,0
        </coordinates>
      </Point>
    </Placemark>
    <Placemark>
      <name>150132 - 28</name>
      <styleUrl>#icon-1899-DB4436-labelson-nodesc</styleUrl>
      <Point>
        <coordinates>
          -77.01637,-12.009716,0
        </coordinates>
      </Point>
    </Placemark>
    <Placemark>
      <name>150132 - 29</name>
      <styleUrl>#icon-1899-DB4436-labelson-nodesc</styleUrl>
      <Point>
        <coordinates>
          -77.015576,-12.004262,0
        </coordinates>
      </Point>
    </Placemark>
    <Placemark>
      <name>150132 - 31</name>
      <styleUrl>#icon-1899-DB4436-labelson-nodesc</styleUrl>
      <Point>
        <coordinates>
          -77.015832,-11.98678,0
        </coordinates>
      </Point>
    </Placemark>
    <Placemark>
      <name>150132 - 32</name>
      <styleUrl>#icon-1899-DB4436-labelson-nodesc</styleUrl>
      <Point>
        <coordinates>
          -77.012405,-12.032204,0
        </coordinates>
      </Point>
    </Placemark>
    <Placemark>
      <name>150132 - 33</name>
      <styleUrl>#icon-1899-DB4436-labelson-nodesc</styleUrl>
      <Point>
        <coordinates>
          -76.976348,-11.933988,0
        </coordinates>
      </Point>
    </Placemark>
    <Placemark>
      <name>150132 - 34</name>
      <styleUrl>#icon-1899-DB4436-labelson-nodesc</styleUrl>
      <Point>
        <coordinates>
          -76.984976,-11.941411,0
        </coordinates>
      </Point>
    </Placemark>
    <Placemark>
      <name>150132 - 36</name>
      <styleUrl>#icon-1899-DB4436-labelson-nodesc</styleUrl>
      <Point>
        <coordinates>
          -76.980721,-11.944496,0
        </coordinates>
      </Point>
    </Placemark>
    <Placemark>
      <name>150132 - 38</name>
      <styleUrl>#icon-1899-DB4436-labelson-nodesc</styleUrl>
      <Point>
        <coordinates>
          -76.986775,-11.946433,0
        </coordinates>
      </Point>
    </Placemark>
    <Placemark>
      <name>150132 - 39</name>
      <styleUrl>#icon-1899-DB4436-labelson-nodesc</styleUrl>
      <Point>
        <coordinates>
          -77.005121,-11.958504,0
        </coordinates>
      </Point>
    </Placemark>
    <Placemark>
      <name>150132 - 41</name>
      <styleUrl>#icon-1899-DB4436-labelson-nodesc</styleUrl>
      <Point>
        <coordinates>
          -77.011014,-11.964707,0
        </coordinates>
      </Point>
    </Placemark>
    <Placemark>
      <name>150132 - 42</name>
      <styleUrl>#icon-1899-DB4436-labelson-nodesc</styleUrl>
      <Point>
        <coordinates>
          -76.986598,-11.953638,0
        </coordinates>
      </Point>
    </Placemark>
    <Placemark>
      <name>150132 - 43</name>
      <styleUrl>#icon-1899-DB4436-labelson-nodesc</styleUrl>
      <Point>
        <coordinates>
          -76.978524,-11.939125,0
        </coordinates>
      </Point>
    </Placemark>
    <Placemark>
      <name>150132 - 47</name>
      <styleUrl>#icon-1899-DB4436-labelson-nodesc</styleUrl>
      <Point>
        <coordinates>
          -76.981457,-11.962423,0
        </coordinates>
      </Point>
    </Placemark>
    <Placemark>
      <name>150132 - 48</name>
      <styleUrl>#icon-1899-DB4436-labelson-nodesc</styleUrl>
      <Point>
        <coordinates>
          -76.974564,-11.96512,0
        </coordinates>
      </Point>
    </Placemark>
    <Placemark>
      <name>150132 - 49</name>
      <styleUrl>#icon-1899-DB4436-labelson-nodesc</styleUrl>
      <Point>
        <coordinates>
          -76.980981,-11.962661,0
        </coordinates>
      </Point>
    </Placemark>
    <Placemark>
      <name>150132 - 55</name>
      <styleUrl>#icon-1899-DB4436-labelson-nodesc</styleUrl>
      <Point>
        <coordinates>
          -76.971521,-11.94297,0
        </coordinates>
      </Point>
    </Placemark>
    <Placemark>
      <name>150132 - 56</name>
      <styleUrl>#icon-1899-DB4436-labelson-nodesc</styleUrl>
      <Point>
        <coordinates>
          -77.017156,-12.003103,0
        </coordinates>
      </Point>
    </Placemark>
    <Placemark>
      <name>150132 - 57</name>
      <styleUrl>#icon-1899-DB4436-labelson-nodesc</styleUrl>
      <Point>
        <coordinates>
          -77.015239,-11.995868,0
        </coordinates>
      </Point>
    </Placemark>
    <Placemark>
      <name>150132 - 58</name>
      <styleUrl>#icon-1899-DB4436-labelson-nodesc</styleUrl>
      <Point>
        <coordinates>
          -77.015468,-11.984786,0
        </coordinates>
      </Point>
    </Placemark>
    <Placemark>
      <name>150132 - 59</name>
      <styleUrl>#icon-1899-DB4436-labelson-nodesc</styleUrl>
      <Point>
        <coordinates>
          -77.015556,-11.989177,0
        </coordinates>
      </Point>
    </Placemark>
    <Placemark>
      <name>150132 - 60</name>
      <styleUrl>#icon-1899-DB4436-labelson-nodesc</styleUrl>
      <Point>
        <coordinates>
          -77.010773,-11.964402,0
        </coordinates>
      </Point>
    </Placemark>
    <Placemark>
      <name>150132 - 61</name>
      <styleUrl>#icon-1899-DB4436-labelson-nodesc</styleUrl>
      <Point>
        <coordinates>
          -76.98776,-11.945657,0
        </coordinates>
      </Point>
    </Placemark>
    <Placemark>
      <name>150132 - 03</name>
      <styleUrl>#icon-1899-DB4436-labelson-nodesc</styleUrl>
      <Point>
        <coordinates>
          -76.992827,-11.96697,0
        </coordinates>
      </Point>
    </Placemark>
    <Placemark>
      <name>150132 - 04</name>
      <styleUrl>#icon-1899-DB4436-labelson-nodesc</styleUrl>
      <Point>
        <coordinates>
          -76.988139,-11.961002,0
        </coordinates>
      </Point>
    </Placemark>
    <Placemark>
      <name>150132 - 05</name>
      <styleUrl>#icon-1899-DB4436-labelson-nodesc</styleUrl>
      <Point>
        <coordinates>
          -76.985475,-11.957098,0
        </coordinates>
      </Point>
    </Placemark>
    <Placemark>
      <name>150132 - 07</name>
      <styleUrl>#icon-1899-DB4436-labelson-nodesc</styleUrl>
      <Point>
        <coordinates>
          -76.980275,-11.941281,0
        </coordinates>
      </Point>
    </Placemark>
    <Placemark>
      <name>150132 - 14</name>
      <styleUrl>#icon-1899-DB4436-labelson-nodesc</styleUrl>
      <Point>
        <coordinates>
          -77.013822,-11.983098,0
        </coordinates>
      </Point>
    </Placemark>
    <Placemark>
      <name>150132 - 18</name>
      <styleUrl>#icon-1899-DB4436-labelson-nodesc</styleUrl>
      <Point>
        <coordinates>
          -77.00144,-11.975911,0
        </coordinates>
      </Point>
    </Placemark>
    <Placemark>
      <name>150132 - 19</name>
      <styleUrl>#icon-1899-DB4436-labelson-nodesc</styleUrl>
      <Point>
        <coordinates>
          -77.003714,-11.978118,0
        </coordinates>
      </Point>
    </Placemark>
    <Placemark>
      <name>150132 - 20</name>
      <styleUrl>#icon-1899-DB4436-labelson-nodesc</styleUrl>
      <Point>
        <coordinates>
          -76.991202,-11.964442,0
        </coordinates>
      </Point>
    </Placemark>
    <Placemark>
      <name>150132 - 21</name>
      <styleUrl>#icon-1899-DB4436-labelson-nodesc</styleUrl>
      <Point>
        <coordinates>
          -76.970431,-11.935656,0
        </coordinates>
      </Point>
    </Placemark>
    <Placemark>
      <name>150132 - 22</name>
      <styleUrl>#icon-1899-DB4436-labelson-nodesc</styleUrl>
      <Point>
        <coordinates>
          -76.990759,-11.940258,0
        </coordinates>
      </Point>
    </Placemark>
    <Placemark>
      <name>150132 - 23</name>
      <styleUrl>#icon-1899-DB4436-labelson-nodesc</styleUrl>
      <Point>
        <coordinates>
          -77.000406,-11.941464,0
        </coordinates>
      </Point>
    </Placemark>
    <Placemark>
      <name>150132 - 26</name>
      <styleUrl>#icon-1899-DB4436-labelson-nodesc</styleUrl>
      <Point>
        <coordinates>
          -77.000312,-11.939919,0
        </coordinates>
      </Point>
    </Placemark>
    <Placemark>
      <name>150132 - 30</name>
      <styleUrl>#icon-1899-DB4436-labelson-nodesc</styleUrl>
      <Point>
        <coordinates>
          -76.965236,-12.023294,0
        </coordinates>
      </Point>
    </Placemark>
    <Placemark>
      <name>150132 - 35</name>
      <styleUrl>#icon-1899-DB4436-labelson-nodesc</styleUrl>
      <Point>
        <coordinates>
          -76.991566,-11.941419,0
        </coordinates>
      </Point>
    </Placemark>
    <Placemark>
      <name>150132 - 37</name>
      <styleUrl>#icon-1899-DB4436-labelson-nodesc</styleUrl>
      <Point>
        <coordinates>
          -76.985982,-11.940925,0
        </coordinates>
      </Point>
    </Placemark>
    <Placemark>
      <name>150132 - 40</name>
      <styleUrl>#icon-1899-DB4436-labelson-nodesc</styleUrl>
      <Point>
        <coordinates>
          -77.006853,-11.9618,0
        </coordinates>
      </Point>
    </Placemark>
    <Placemark>
      <name>150132 - 44</name>
      <styleUrl>#icon-1899-DB4436-labelson-nodesc</styleUrl>
      <Point>
        <coordinates>
          -76.97651,-11.983978,0
        </coordinates>
      </Point>
    </Placemark>
    <Placemark>
      <name>150132 - 45</name>
      <styleUrl>#icon-1899-DB4436-labelson-nodesc</styleUrl>
      <Point>
        <coordinates>
          -76.980996,-11.950785,0
        </coordinates>
      </Point>
    </Placemark>
    <Placemark>
      <name>150132 - 46</name>
      <styleUrl>#icon-1899-DB4436-labelson-nodesc</styleUrl>
      <Point>
        <coordinates>
          -76.976328,-11.943858,0
        </coordinates>
      </Point>
    </Placemark>
    <Placemark>
      <name>150132 - 50</name>
      <styleUrl>#icon-1899-DB4436-labelson-nodesc</styleUrl>
      <Point>
        <coordinates>
          -76.981189,-11.979878,0
        </coordinates>
      </Point>
    </Placemark>
    <Placemark>
      <name>150132 - 51</name>
      <styleUrl>#icon-1899-DB4436-labelson-nodesc</styleUrl>
      <Point>
        <coordinates>
          -76.986605,-11.949543,0
        </coordinates>
      </Point>
    </Placemark>
    <Placemark>
      <name>150132 - 52</name>
      <styleUrl>#icon-1899-DB4436-labelson-nodesc</styleUrl>
      <Point>
        <coordinates>
          -77.002223,-11.991307,0
        </coordinates>
      </Point>
    </Placemark>
    <Placemark>
      <name>150132 - 53</name>
      <styleUrl>#icon-1899-DB4436-labelson-nodesc</styleUrl>
      <Point>
        <coordinates>
          -77.017885,-12.02939,0
        </coordinates>
      </Point>
    </Placemark>
    <Placemark>
      <name>150132 - 54</name>
      <styleUrl>#icon-1899-DB4436-labelson-nodesc</styleUrl>
      <Point>
        <coordinates>
          -76.982816,-11.954975,0
        </coordinates>
      </Point>
    </Placemark>
    <Placemark>
      <name>150132 - 62</name>
      <styleUrl>#icon-1899-DB4436-labelson-nodesc</styleUrl>
      <Point>
        <coordinates>
          -76.970628,-12.018475,0
        </coordinates>
      </Point>
    </Placemark>
    <Placemark>
      <name>150132 - 63</name>
      <styleUrl>#icon-1899-DB4436-labelson-nodesc</styleUrl>
      <Point>
        <coordinates>
          -76.963806,-12.014708,0
        </coordinates>
      </Point>
    </Placemark>
    <Placemark>
      <name>150132 - 64</name>
      <styleUrl>#icon-1899-DB4436-labelson-nodesc</styleUrl>
      <Point>
        <coordinates>
          -76.987083,-12.021259,0
        </coordinates>
      </Point>
    </Placemark>
    <Placemark>
      <name>150132 - 65</name>
      <styleUrl>#icon-1899-DB4436-labelson-nodesc</styleUrl>
      <Point>
        <coordinates>
          -76.988687,-12.003334,0
        </coordinates>
      </Point>
    </Placemark>
    <Placemark>
      <name>150132 - 66</name>
      <styleUrl>#icon-1899-DB4436-labelson-nodesc</styleUrl>
      <Point>
        <coordinates>
          -77.001432,-12.006009,0
        </coordinates>
      </Point>
    </Placemark>
    <Placemark>
      <name>150132 - 67</name>
      <styleUrl>#icon-1899-DB4436-labelson-nodesc</styleUrl>
      <Point>
        <coordinates>
          -77.010444,-11.995568,0
        </coordinates>
      </Point>
    </Placemark>
    <Placemark>
      <name>150132 - 68</name>
      <styleUrl>#icon-1899-DB4436-labelson-nodesc</styleUrl>
      <Point>
        <coordinates>
          -77.010647,-11.993244,0
        </coordinates>
      </Point>
    </Placemark>
    <Placemark>
      <name>150132 - 69</name>
      <styleUrl>#icon-1899-DB4436-labelson-nodesc</styleUrl>
      <Point>
        <coordinates>
          -77.005449,-11.991781,0
        </coordinates>
      </Point>
    </Placemark>
    <Placemark>
      <name>150132 - 70</name>
      <styleUrl>#icon-1899-DB4436-labelson-nodesc</styleUrl>
      <Point>
        <coordinates>
          -77.007929,-11.996824,0
        </coordinates>
      </Point>
    </Placemark>
    <Placemark>
      <name>150132 - 71</name>
      <styleUrl>#icon-1899-DB4436-labelson-nodesc</styleUrl>
      <Point>
        <coordinates>
          -77.008119,-11.977915,0
        </coordinates>
      </Point>
    </Placemark>
    <Placemark>
      <name>150132 - 72</name>
      <styleUrl>#icon-1899-DB4436-labelson-nodesc</styleUrl>
      <Point>
        <coordinates>
          -77.008173,-11.97777,0
        </coordinates>
      </Point>
    </Placemark>
    <Placemark>
      <name>150132 - 73</name>
      <styleUrl>#icon-1899-DB4436-labelson-nodesc</styleUrl>
      <Point>
        <coordinates>
          -77.003993,-11.976137,0
        </coordinates>
      </Point>
    </Placemark>
    <Placemark>
      <name>150132 - 74</name>
      <styleUrl>#icon-1899-DB4436-labelson-nodesc</styleUrl>
      <Point>
        <coordinates>
          -76.997064,-11.978807,0
        </coordinates>
      </Point>
    </Placemark>
    <Placemark>
      <name>150132 - 75</name>
      <styleUrl>#icon-1899-DB4436-labelson-nodesc</styleUrl>
      <Point>
        <coordinates>
          -76.992283,-11.98036,0
        </coordinates>
      </Point>
    </Placemark>
    <Placemark>
      <name>150132 - 76</name>
      <styleUrl>#icon-1899-DB4436-labelson-nodesc</styleUrl>
      <Point>
        <coordinates>
          -76.986619,-11.980481,0
        </coordinates>
      </Point>
    </Placemark>
    <Placemark>
      <name>150132 - 77</name>
      <styleUrl>#icon-1899-DB4436-labelson-nodesc</styleUrl>
      <Point>
        <coordinates>
          -76.984695,-11.981028,0
        </coordinates>
      </Point>
    </Placemark>
    <Placemark>
      <name>150132 - 78</name>
      <styleUrl>#icon-1899-DB4436-labelson-nodesc</styleUrl>
      <Point>
        <coordinates>
          -76.977897,-11.981637,0
        </coordinates>
      </Point>
    </Placemark>
    <Placemark>
      <name>150132 - 79</name>
      <styleUrl>#icon-1899-DB4436-labelson-nodesc</styleUrl>
      <Point>
        <coordinates>
          -76.979108,-11.981438,0
        </coordinates>
      </Point>
    </Placemark>
    <Placemark>
      <name>150132 - 80</name>
      <styleUrl>#icon-1899-DB4436-labelson-nodesc</styleUrl>
      <Point>
        <coordinates>
          -76.981034,-11.981235,0
        </coordinates>
      </Point>
    </Placemark>
    <Placemark>
      <name>150132 - 81</name>
      <styleUrl>#icon-1899-DB4436-labelson-nodesc</styleUrl>
      <Point>
        <coordinates>
          -76.996884,-12.008048,0
        </coordinates>
      </Point>
    </Placemark>
    <Placemark>
      <name>150132 - 82</name>
      <styleUrl>#icon-1899-DB4436-labelson-nodesc</styleUrl>
      <Point>
        <coordinates>
          -76.998182,-11.986102,0
        </coordinates>
      </Point>
    </Placemark>
    <Placemark>
      <name>150132 - 83</name>
      <styleUrl>#icon-1899-DB4436-labelson-nodesc</styleUrl>
      <Point>
        <coordinates>
          -76.976503,-11.965377,0
        </coordinates>
      </Point>
    </Placemark>
    <Placemark>
      <name>150132 - 84</name>
      <styleUrl>#icon-1899-DB4436-labelson-nodesc</styleUrl>
      <Point>
        <coordinates>
          -76.970576,-11.967191,0
        </coordinates>
      </Point>
    </Placemark>
    <Placemark>
      <name>150132 - 85</name>
      <styleUrl>#icon-1899-DB4436-labelson-nodesc</styleUrl>
      <Point>
        <coordinates>
          -76.972025,-11.965698,0
        </coordinates>
      </Point>
    </Placemark>
    <Placemark>
      <name>150132 - 86</name>
      <styleUrl>#icon-1899-DB4436-labelson-nodesc</styleUrl>
      <Point>
        <coordinates>
          -76.976878,-11.938729,0
        </coordinates>
      </Point>
    </Placemark>
    <Placemark>
      <name>150132 - 87</name>
      <styleUrl>#icon-1899-DB4436-labelson-nodesc</styleUrl>
      <Point>
        <coordinates>
          -76.977808,-11.939048,0
        </coordinates>
      </Point>
    </Placemark>
    <Placemark>
      <name>150132 - 89</name>
      <styleUrl>#icon-1899-DB4436-labelson-nodesc</styleUrl>
      <Point>
        <coordinates>
          -76.980539,-11.940927,0
        </coordinates>
      </Point>
    </Placemark>
    <Placemark>
      <name>150132 - 90</name>
      <styleUrl>#icon-1899-DB4436-labelson-nodesc</styleUrl>
      <Point>
        <coordinates>
          -76.980334,-11.940612,0
        </coordinates>
      </Point>
    </Placemark>
    <Placemark>
      <name>150132 - 91</name>
      <styleUrl>#icon-1899-DB4436-labelson-nodesc</styleUrl>
      <Point>
        <coordinates>
          -76.981679,-11.942474,0
        </coordinates>
      </Point>
    </Placemark>
    <Placemark>
      <name>150132 - 92</name>
      <styleUrl>#icon-1899-DB4436-labelson-nodesc</styleUrl>
      <Point>
        <coordinates>
          -76.989642,-11.928019,0
        </coordinates>
      </Point>
    </Placemark>
    <Placemark>
      <name>150132 - 93</name>
      <styleUrl>#icon-1899-DB4436-labelson-nodesc</styleUrl>
      <Point>
        <coordinates>
          -76.993169,-11.942139,0
        </coordinates>
      </Point>
    </Placemark>
    <Placemark>
      <name>150132 - 94</name>
      <styleUrl>#icon-1899-DB4436-labelson-nodesc</styleUrl>
      <Point>
        <coordinates>
          -76.979706,-11.945036,0
        </coordinates>
      </Point>
    </Placemark>
    <Placemark>
      <name>150132 - 95</name>
      <styleUrl>#icon-1899-DB4436-labelson-nodesc</styleUrl>
      <Point>
        <coordinates>
          -76.97502,-11.941987,0
        </coordinates>
      </Point>
    </Placemark>
    <Placemark>
      <name>150132 - 96</name>
      <styleUrl>#icon-1899-DB4436-labelson-nodesc</styleUrl>
      <Point>
        <coordinates>
          -76.9856,-11.962828,0
        </coordinates>
      </Point>
    </Placemark>
    <Placemark>
      <name>150132 - 97</name>
      <styleUrl>#icon-1899-DB4436-labelson-nodesc</styleUrl>
      <Point>
        <coordinates>
          -76.989124,-11.96771,0
        </coordinates>
      </Point>
    </Placemark>
    <Placemark>
      <name>150132 - 98</name>
      <styleUrl>#icon-1899-DB4436-labelson-nodesc</styleUrl>
      <Point>
        <coordinates>
          -76.990431,-11.969437,0
        </coordinates>
      </Point>
    </Placemark>
    <Placemark>
      <name>150132 - 99</name>
      <styleUrl>#icon-1899-DB4436-labelson-nodesc</styleUrl>
      <Point>
        <coordinates>
          -76.991954,-11.979278,0
        </coordinates>
      </Point>
    </Placemark>
    <Placemark>
      <name>150132 - 100</name>
      <styleUrl>#icon-1899-DB4436-labelson-nodesc</styleUrl>
      <Point>
        <coordinates>
          -76.994491,-11.984728,0
        </coordinates>
      </Point>
    </Placemark>
    <Placemark>
      <name>150132 - 101</name>
      <styleUrl>#icon-1899-DB4436-labelson-nodesc</styleUrl>
      <Point>
        <coordinates>
          -76.998048,-11.980292,0
        </coordinates>
      </Point>
    </Placemark>
    <Placemark>
      <name>150132 - 102</name>
      <styleUrl>#icon-1899-DB4436-labelson-nodesc</styleUrl>
      <Point>
        <coordinates>
          -77.011807,-11.968895,0
        </coordinates>
      </Point>
    </Placemark>
    <Placemark>
      <name>150132 - 103</name>
      <styleUrl>#icon-1899-DB4436-labelson-nodesc</styleUrl>
      <Point>
        <coordinates>
          -77.010195,-11.966846,0
        </coordinates>
      </Point>
    </Placemark>
    <Placemark>
      <name>150132 - 104</name>
      <styleUrl>#icon-1899-DB4436-labelson-nodesc</styleUrl>
      <Point>
        <coordinates>
          -77.006909,-11.949453,0
        </coordinates>
      </Point>
    </Placemark>
    <Placemark>
      <name>150132 - 105</name>
      <styleUrl>#icon-1899-DB4436-labelson-nodesc</styleUrl>
      <Point>
        <coordinates>
          -76.99768,-11.956533,0
        </coordinates>
      </Point>
    </Placemark>
    <Placemark>
      <name>150132 - 106</name>
      <styleUrl>#icon-1899-DB4436-labelson-nodesc</styleUrl>
      <Point>
        <coordinates>
          -76.998204,-11.957821,0
        </coordinates>
      </Point>
    </Placemark>
    <Placemark>
      <name>150132 - 107</name>
      <styleUrl>#icon-1899-DB4436-labelson-nodesc</styleUrl>
      <Point>
        <coordinates>
          -76.990807,-11.959311,0
        </coordinates>
      </Point>
    </Placemark>
    <Placemark>
      <name>150132 - 108</name>
      <styleUrl>#icon-1899-DB4436-labelson-nodesc</styleUrl>
      <Point>
        <coordinates>
          -76.991856,-11.955869,0
        </coordinates>
      </Point>
    </Placemark>
    <Placemark>
      <name>150132 - 109</name>
      <styleUrl>#icon-1899-DB4436-labelson-nodesc</styleUrl>
      <Point>
        <coordinates>
          -76.993379,-11.955858,0
        </coordinates>
      </Point>
    </Placemark>
    <Placemark>
      <name>150132 - 110</name>
      <styleUrl>#icon-1899-DB4436-labelson-nodesc</styleUrl>
      <Point>
        <coordinates>
          -77.000588,-11.996118,0
        </coordinates>
      </Point>
    </Placemark>
    <Placemark>
      <name>150132 - 111</name>
      <styleUrl>#icon-1899-DB4436-labelson-nodesc</styleUrl>
      <Point>
        <coordinates>
          -76.990272,-11.953991,0
        </coordinates>
      </Point>
    </Placemark>
    <Placemark>
      <name>150132 - 112</name>
      <styleUrl>#icon-1899-DB4436-labelson-nodesc</styleUrl>
      <Point>
        <coordinates>
          -76.988021,-11.951178,0
        </coordinates>
      </Point>
    </Placemark>
    <Placemark>
      <name>150132 - 113</name>
      <styleUrl>#icon-1899-DB4436-labelson-nodesc</styleUrl>
      <Point>
        <coordinates>
          -76.982609,-11.956829,0
        </coordinates>
      </Point>
    </Placemark>
    <Placemark>
      <name>150132 - 114</name>
      <styleUrl>#icon-1899-DB4436-labelson-nodesc</styleUrl>
      <Point>
        <coordinates>
          -76.981542,-11.955174,0
        </coordinates>
      </Point>
    </Placemark>
    <Placemark>
      <name>150132 - 115</name>
      <styleUrl>#icon-1899-DB4436-labelson-nodesc</styleUrl>
      <Point>
        <coordinates>
          -76.983477,-11.948634,0
        </coordinates>
      </Point>
    </Placemark>
    <Placemark>
      <name>150132 - 116</name>
      <styleUrl>#icon-1899-DB4436-labelson-nodesc</styleUrl>
      <Point>
        <coordinates>
          -76.985468,-11.947246,0
        </coordinates>
      </Point>
    </Placemark>
    <Placemark>
      <name>150132 - 117</name>
      <styleUrl>#icon-1899-DB4436-labelson-nodesc</styleUrl>
      <Point>
        <coordinates>
          -76.991113,-11.943519,0
        </coordinates>
      </Point>
    </Placemark>
    <Placemark>
      <name>150132 - 118</name>
      <styleUrl>#icon-1899-DB4436-labelson-nodesc</styleUrl>
      <Point>
        <coordinates>
          -76.982591,-11.949237,0
        </coordinates>
      </Point>
    </Placemark>
    <Placemark>
      <name>150132 - 119</name>
      <styleUrl>#icon-1899-DB4436-labelson-nodesc</styleUrl>
      <Point>
        <coordinates>
          -76.981165,-11.950042,0
        </coordinates>
      </Point>
    </Placemark>
    <Placemark>
      <name>150132 - 120</name>
      <styleUrl>#icon-1899-DB4436-labelson-nodesc</styleUrl>
      <Point>
        <coordinates>
          -76.988447,-11.939091,0
        </coordinates>
      </Point>
    </Placemark>
    <Placemark>
      <name>150132 - 121</name>
      <styleUrl>#icon-1899-DB4436-labelson-nodesc</styleUrl>
      <Point>
        <coordinates>
          -76.984213,-11.958978,0
        </coordinates>
      </Point>
    </Placemark>
    <Placemark>
      <name>150132 - 122</name>
      <styleUrl>#icon-1899-DB4436-labelson-nodesc</styleUrl>
      <Point>
        <coordinates>
          -77.000235,-11.961973,0
        </coordinates>
      </Point>
    </Placemark>
    <Placemark>
      <name>150132 - 123</name>
      <styleUrl>#icon-1899-DB4436-labelson-nodesc</styleUrl>
      <Point>
        <coordinates>
          -77.009602,-11.969914,0
        </coordinates>
      </Point>
    </Placemark>
    <Placemark>
      <name>150132 - 124</name>
      <styleUrl>#icon-1899-DB4436-labelson-nodesc</styleUrl>
      <Point>
        <coordinates>
          -77.015279,-11.995063,0
        </coordinates>
      </Point>
    </Placemark>
    <Placemark>
      <name>150132 - 125</name>
      <styleUrl>#icon-1899-DB4436-labelson-nodesc</styleUrl>
      <Point>
        <coordinates>
          -77.016048,-11.999703,0
        </coordinates>
      </Point>
    </Placemark>
    <Placemark>
      <name>150132 - 126</name>
      <styleUrl>#icon-1899-DB4436-labelson-nodesc</styleUrl>
      <Point>
        <coordinates>
          -77.009081,-11.999916,0
        </coordinates>
      </Point>
    </Placemark>
    <Placemark>
      <name>150132 - 127</name>
      <styleUrl>#icon-1899-DB4436-labelson-nodesc</styleUrl>
      <Point>
        <coordinates>
          -77.019253,-12.028151,0
        </coordinates>
      </Point>
    </Placemark>
    <Placemark>
      <name>150132 - 128</name>
      <styleUrl>#icon-1899-DB4436-labelson-nodesc</styleUrl>
      <Point>
        <coordinates>
          -76.975744,-11.943031,0
        </coordinates>
      </Point>
    </Placemark>
    <Placemark>
      <name>150132 - 129</name>
      <styleUrl>#icon-1899-DB4436-labelson-nodesc</styleUrl>
      <Point>
        <coordinates>
          -76.978947,-11.945539,0
        </coordinates>
      </Point>
    </Placemark>
    <Placemark>
      <name>150132 - 130</name>
      <styleUrl>#icon-1899-DB4436-labelson-nodesc</styleUrl>
      <Point>
        <coordinates>
          -76.982629,-11.943091,0
        </coordinates>
      </Point>
    </Placemark>
    <Placemark>
      <name>150132 - 131</name>
      <styleUrl>#icon-1899-DB4436-labelson-nodesc</styleUrl>
      <Point>
        <coordinates>
          -76.983871,-11.942223,0
        </coordinates>
      </Point>
    </Placemark>
    <Placemark>
      <name>150132 - 132</name>
      <styleUrl>#icon-1899-DB4436-labelson-nodesc</styleUrl>
      <Point>
        <coordinates>
          -76.987223,-11.939985,0
        </coordinates>
      </Point>
    </Placemark>
    <Placemark>
      <name>150132 - 133</name>
      <styleUrl>#icon-1899-DB4436-labelson-nodesc</styleUrl>
      <Point>
        <coordinates>
          -76.952089,-12.018397,0
        </coordinates>
      </Point>
    </Placemark>
    <Placemark>
      <name>150132 - 134</name>
      <styleUrl>#icon-1899-DB4436-labelson-nodesc</styleUrl>
      <Point>
        <coordinates>
          -76.961939,-12.010555,0
        </coordinates>
      </Point>
    </Placemark>
    <Placemark>
      <name>150132 - 135</name>
      <styleUrl>#icon-1899-DB4436-labelson-nodesc</styleUrl>
      <Point>
        <coordinates>
          -76.96136,-12.009176,0
        </coordinates>
      </Point>
    </Placemark>
    <Placemark>
      <name>150132 - 136</name>
      <styleUrl>#icon-1899-DB4436-labelson-nodesc</styleUrl>
      <Point>
        <coordinates>
          -76.96546,-12.01617,0
        </coordinates>
      </Point>
    </Placemark>
    <Placemark>
      <name>150132 - 137</name>
      <styleUrl>#icon-1899-DB4436-labelson-nodesc</styleUrl>
      <Point>
        <coordinates>
          -76.976977,-12.024106,0
        </coordinates>
      </Point>
    </Placemark>
    <Placemark>
      <name>150132 - 138</name>
      <styleUrl>#icon-1899-DB4436-labelson-nodesc</styleUrl>
      <Point>
        <coordinates>
          -76.978042,-12.024171,0
        </coordinates>
      </Point>
    </Placemark>
    <Placemark>
      <name>150132 - 139</name>
      <styleUrl>#icon-1899-DB4436-labelson-nodesc</styleUrl>
      <Point>
        <coordinates>
          -76.988734,-12.003424,0
        </coordinates>
      </Point>
    </Placemark>
    <Placemark>
      <name>150132 - 140</name>
      <styleUrl>#icon-1899-DB4436-labelson-nodesc</styleUrl>
      <Point>
        <coordinates>
          -76.991689,-11.970684,0
        </coordinates>
      </Point>
    </Placemark>
    <Placemark>
      <name>150132 - 143</name>
      <styleUrl>#icon-1899-DB4436-labelson-nodesc</styleUrl>
      <Point>
        <coordinates>
          -76.994876,-12.01466,0
        </coordinates>
      </Point>
    </Placemark>
    <Placemark>
      <name>150132 - 145</name>
      <styleUrl>#icon-1899-DB4436-labelson-nodesc</styleUrl>
      <Point>
        <coordinates>
          -77.004184,-11.98831,0
        </coordinates>
      </Point>
    </Placemark>
    <Placemark>
      <name>150132 - 141</name>
      <styleUrl>#icon-1899-DB4436-labelson-nodesc</styleUrl>
      <Point>
        <coordinates>
          -76.993663,-11.983333,0
        </coordinates>
      </Point>
    </Placemark>
    <Placemark>
      <name>150132 - 142</name>
      <styleUrl>#icon-1899-DB4436-labelson-nodesc</styleUrl>
      <Point>
        <coordinates>
          -77.00141,-11.956858,0
        </coordinates>
      </Point>
    </Placemark>
    <Placemark>
      <name>150132 - 144</name>
      <styleUrl>#icon-1899-DB4436-labelson-nodesc</styleUrl>
      <Point>
        <coordinates>
          -76.997468,-12.013774,0
        </coordinates>
      </Point>
    </Placemark>
    <Placemark>
      <name>150132 - 146</name>
      <styleUrl>#icon-1899-DB4436-labelson-nodesc</styleUrl>
      <Point>
        <coordinates>
          -76.991796,-11.977805,0
        </coordinates>
      </Point>
    </Placemark>
    <Placemark>
      <name>150132 - 147</name>
      <styleUrl>#icon-1899-DB4436-labelson-nodesc</styleUrl>
      <Point>
        <coordinates>
          -76.993667,-11.983821,0
        </coordinates>
      </Point>
    </Placemark>
    <Placemark>
      <name>150132 - 148</name>
      <styleUrl>#icon-1899-DB4436-labelson-nodesc</styleUrl>
      <Point>
        <coordinates>
          -76.991472,-11.973659,0
        </coordinates>
      </Point>
    </Placemark>
    <Placemark>
      <name>150132 - 149</name>
      <styleUrl>#icon-1899-DB4436-labelson-nodesc</styleUrl>
      <Point>
        <coordinates>
          -77.013133,-11.981865,0
        </coordinates>
      </Point>
    </Placemark>
    <Placemark>
      <name>150132 - 150</name>
      <styleUrl>#icon-1899-DB4436-labelson-nodesc</styleUrl>
      <Point>
        <coordinates>
          -77.012774,-11.981642,0
        </coordinates>
      </Point>
    </Placemark>
    <Placemark>
      <name>150132 - 151</name>
      <styleUrl>#icon-1899-DB4436-labelson-nodesc</styleUrl>
      <Point>
        <coordinates>
          -77.000428,-12.008068,0
        </coordinates>
      </Point>
    </Placemark>
    <Placemark>
      <name>150132 - 152</name>
      <styleUrl>#icon-1899-DB4436-labelson-nodesc</styleUrl>
      <Point>
        <coordinates>
          -76.982004,-11.942987,0
        </coordinates>
      </Point>
    </Placemark>
    <Placemark>
      <name>150132 - 153</name>
      <styleUrl>#icon-1899-DB4436-labelson-nodesc</styleUrl>
      <Point>
        <coordinates>
          -76.982997,-11.944552,0
        </coordinates>
      </Point>
    </Placemark>
    <Placemark>
      <name>150132 - 154</name>
      <styleUrl>#icon-1899-DB4436-labelson-nodesc</styleUrl>
      <Point>
        <coordinates>
          -76.983609,-11.945407,0
        </coordinates>
      </Point>
    </Placemark>
    <Placemark>
      <name>150132 - 155</name>
      <styleUrl>#icon-1899-DB4436-labelson-nodesc</styleUrl>
      <Point>
        <coordinates>
          -76.984069,-11.946759,0
        </coordinates>
      </Point>
    </Placemark>
    <Placemark>
      <name>150132 - 156</name>
      <styleUrl>#icon-1899-DB4436-labelson-nodesc</styleUrl>
      <Point>
        <coordinates>
          -76.985808,-11.948618,0
        </coordinates>
      </Point>
    </Placemark>
  </Document>
</kml>
